<?xml version="1.0" encoding="UTF-8"?>
<kml xmlns="http://www.opengis.net/kml/2.2">
  <Document>
    <name>Spain 2026 Family Trip</name>
    <description>Locked bookings and lodging pins. Times in trip-events.json and spain-2026.ics.</description>
    <Style id="locked">
      <IconStyle>
        <color>ff4f70c4</color>
        <scale>1.1</scale>
        <Icon><href>http://maps.google.com/mapfiles/kml/paddle/red-circle.png</href></Icon>
      </IconStyle>
    </Style>
    <Style id="idea">
      <IconStyle>
        <color>ff4a6b5c</color>
        <scale>0.9</scale>
        <Icon><href>http://maps.google.com/mapfiles/kml/paddle/grn-circle.png</href></Icon>
      </IconStyle>
    </Style>
    <Placemark>
      <name>Valencia beach house (check-in May 27 4PM)</name>
      <description>Vrbo HA-7TLM9D. Crib confirmed. Host Maria Pilar.</description>
      <styleUrl>#locked</styleUrl>
      <Point><coordinates>-0.325,39.468,0</coordinates></Point>
    </Placemark>
    <Placemark>
      <name>Paella — Restaurante Casa Carmela</name>
      <description>May 28, 2026 1:00 PM Spain time. Carrer d'Isabel de Villena, 155.</description>
      <styleUrl>#locked</styleUrl>
      <Point><coordinates>-0.3255,39.4678,0</coordinates></Point>
    </Placemark>
    <Placemark>
      <name>Valencia Estació del Nord (train May 29 09:06)</name>
      <description>Euromed 01092 to Barcelona. Locator 9D2RJU.</description>
      <styleUrl>#locked</styleUrl>
      <Point><coordinates>-0.3774,39.4661,0</coordinates></Point>
    </Placemark>
    <Placemark>
      <name>Barcelona apartment — Valencia Street</name>
      <description>Williams family. Vrbo 726EF3C0B8. Check-in May 29 2PM; checkout Jun 1 11AM.</description>
      <styleUrl>#locked</styleUrl>
      <Point><coordinates>2.1654,41.3912,0</coordinates></Point>
    </Placemark>
    <Placemark>
      <name>Barcelona — Ghost apartment</name>
      <description>Thomas + Valerie. VRBO 4156885ha. Near Ronda de la Universitat. Check-in May 29 2PM; checkout Jun 1 11AM.</description>
      <styleUrl>#locked</styleUrl>
      <Point><coordinates>2.1685,41.3875,0</coordinates></Point>
    </Placemark>
    <Placemark>
      <name>La Pedrera — Morning Tour Group A</name>
      <description>May 30 9:15 AM. Map: tmg.link/app/r/lapedrera</description>
      <styleUrl>#locked</styleUrl>
      <Point><coordinates>2.1619,41.3954,0</coordinates></Point>
    </Placemark>
    <Placemark>
      <name>Sagrada Família entry</name>
      <description>May 30 12:15 PM. Locator 97232969. C/ Marina.</description>
      <styleUrl>#locked</styleUrl>
      <Point><coordinates>2.1744,41.4036,0</coordinates></Point>
    </Placemark>
    <Placemark>
      <name>Catedral de Barcelona — Tapas Tour</name>
      <description>May 30 5:00 PM. Map: tmg.link/app/r/catedralbcn</description>
      <styleUrl>#locked</styleUrl>
      <Point><coordinates>2.1766,41.3840,0</coordinates></Point>
    </Placemark>
    <Placemark>
      <name>Hotel Condes de Barcelona — Welcome dinner</name>
      <description>May 29 7-10 PM. Passeig de Gracia 73-75. Map: tmg.link/app/r/condes</description>
      <styleUrl>#locked</styleUrl>
      <Point><coordinates>2.1620,41.3936,0</coordinates></Point>
    </Placemark>
    <Placemark>
      <name>Grand Hotel Central — Wedding hair/makeup + 3PM mini bus</name>
      <description>May 31. Via Laietana 30. Angela H&amp;MU from 9:40; Chandler groomsmen photos 12:45; wedding-party mini buses depart 3:00 PM.</description>
      <styleUrl>#locked</styleUrl>
      <Point><coordinates>2.1779,41.3851,0</coordinates></Point>
    </Placemark>
    <Placemark>
      <name>Ronda Sant Pere 21-23 — Guest bus pickup</name>
      <description>May 31 4:45 PM guest bus to El Convent de Blanes (Segales, 59 seats; Mary +1 607-379-2239). Map: tmg.link/app/r/shuttlepickup</description>
      <styleUrl>#locked</styleUrl>
      <Point><coordinates>2.1735,41.3897,0</coordinates></Point>
    </Placemark>
    <Placemark>
      <name>El Convent de Blanes — Wedding ceremony &amp; reception</name>
      <description>May 31. Passeig de Carles Faust 4, 17300 Blanes (Girona), ~68 km N of Barcelona. Ceremony 7 PM, dinner, party to 2:15 AM. Return buses 12:30/1:15/2:30 AM.</description>
      <styleUrl>#locked</styleUrl>
      <Point><coordinates>2.7997,41.6755,0</coordinates></Point>
    </Placemark>
    <Placemark>
      <name>Barcelona-Sants (train Jun 1 3PM)</name>
      <description>AVE 03152 to Madrid. Locator JKSS7B.</description>
      <styleUrl>#locked</styleUrl>
      <Point><coordinates>2.1404,41.3799,0</coordinates></Point>
    </Placemark>
    <Placemark>
      <name>Madrid Airbnb — Calle de la Encomienda 11</name>
      <description>Airbnb HMR8NYWPZF. Jun 1–4. Crib confirmed. Arrive ~7PM Jun 1.</description>
      <styleUrl>#locked</styleUrl>
      <Point><coordinates>-3.7078,40.4112,0</coordinates></Point>
    </Placemark>
    <Placemark>
      <name>Madrid Barajas Airport</name>
      <description>Thomas departs Jun 3 2:45 PM; Williams Jun 4 2:05 PM.</description>
      <styleUrl>#locked</styleUrl>
      <Point><coordinates>-3.5676,40.4983,0</coordinates></Point>
    </Placemark>
    <Placemark>
      <name>L'Oceanogràfic (idea)</name>
      <description>Discount tickets via host Maria Pilar.</description>
      <styleUrl>#idea</styleUrl>
      <Point><coordinates>-0.3526,39.454,0</coordinates></Point>
    </Placemark>
    <Placemark>
      <name>Mercado Central Valencia (idea)</name>
      <description>Flexible May 28 morning.</description>
      <styleUrl>#idea</styleUrl>
      <Point><coordinates>-0.3763,39.4737,0</coordinates></Point>
    </Placemark>
    <Placemark>
      <name>Park Güell (idea)</name>
      <description>Timed entry required.</description>
      <styleUrl>#idea</styleUrl>
      <Point><coordinates>2.1527,41.4145,0</coordinates></Point>
    </Placemark>
    <Placemark>
      <name>Retiro Park Madrid (idea)</name>
      <description>Good Jun 2 relax day.</description>
      <styleUrl>#idea</styleUrl>
      <Point><coordinates>-3.6844,40.4153,0</coordinates></Point>
    </Placemark>
    <Placemark>
      <name>Prado Museum Madrid (idea)</name>
      <description>Book ahead or free 6–8 PM.</description>
      <styleUrl>#idea</styleUrl>
      <Point><coordinates>-3.6921,40.4138,0</coordinates></Point>
    </Placemark>
  </Document>
</kml>
